LUDI TANCE 1-01B (L-SA*)
1 51822U 22018A   26138.16430333  .00000371  00000+0  45844-4 0  9993
2 51822  97.8090 146.0072 0001615  92.3131 267.8271 14.88418655229247
JILIN-1 GAOFEN 03D15    
1 51839U 22019R   26138.22591654  .00296562  36180-4  78902-3 0  9995
2 51839  97.3636 234.2066 0006469 226.7090 133.3646 15.94549584235343
JILIN-1 GAOFEN 03D12    
1 51841U 22019T   26138.19765799  .00327831  44709-4  81145-3 0  9990
2 51841  97.3650 234.1258 0006865 224.3027 135.7701 15.95893525235344
2022-023F               
1 51951U 22023F   26138.17038564  .00013575  00000+0  54388-3 0  9995
2 51951  63.4479  15.5275 0128312 343.8119  15.8909 15.17997922233155
MERIDIAN 10             
1 52145U 22030A   26137.06586204  .00000243  00000+0  00000+0 0  9991
2 52145  62.6760 144.1393 6775507 272.8788  17.7083  2.00616156 30400
OMNI-L1                 
1 52157U 22033A   26138.14742821  .00001038  00000+0  13532-3 0  9997
2 52157  97.8396 217.9106 0005827  37.3102 322.8515 14.82624053223006
ENMAP                   
1 52159U 22033C   26138.18071082  .00000037  00000+0  12912-4 0  9997
2 52159  97.9796 220.8558 0001495  86.6887 273.4492 14.74958685222232
ARCSAT-1                
1 52161U 22033E   26138.23236574  .00008399  00000+0  13715-3 0  9995
2 52161  97.2747 230.0796 0003481 317.8879  42.2107 15.52821605231051
GLOBAL-18               
1 52196U 22034B   26138.12207468  .00016031  00000+0  34343-3 0  9994
2 52196  52.9830  40.1785 0005236 143.0482 217.0884 15.44938963232318
GAOFEN-3 03             
1 52200U 22035A   26138.18902725 -.00000142  00000+0 -29936-4 0  9996
2 52200  98.4064 147.2038 0001000  79.5639 280.5663 14.42218979216520
DAQI-1                  
1 52257U 22039A   26138.14819047  .00000164  00000+0  45932-4 0  9998
2 52257  98.1480  77.6238 0003896  10.6154 349.5126 14.57657440217563
BRO-6                   
1 52422U 22047AE  26138.23809845  .00025269  00000+0  47331-3 0  9993
2 52422  97.3401 228.7644 0005435 167.8353 192.3029 15.48654177226514
JILIN-1 GAOFEN 3D27     
1 52444U 22048B   26138.23615402  .00057735  00000+0  50029-3 0  9993
2 52444  97.5693 249.6253 0005393 155.7043 204.4474 15.68960648224776
JILIN-1 GAOFEN 3D28     
1 52445U 22048C   26138.15650816  .00066743  00000+0  52903-3 0  9995
2 52445  97.5630 249.5923 0004318 173.2024 186.9297 15.71094543224808
VIGORIDE-3              
1 52760U 22057AE  26138.14057704  .00003653  00000+0  14101-3 0  9990
2 52760  97.6568 277.3343 0007517 222.2039 137.8622 15.26933774220574
ION SCV-006             
1 52761U 22057AF  26137.65746862  .00006962  00000+0  15147-3 0  9993
2 52761  97.6067 284.8412 0016858 220.8357 139.1629 15.44508627221404
SHERPA-AC1              
1 52763U 22057AH  26138.16543713  .00004802  00000+0  14027-3 0  9999
2 52763  97.6652 286.1582 0007542 188.9694 171.1416 15.35803544221098
OMNI-L2                 
1 52771U 22057AR  26138.13092492  .00000859  00000+0  11625-3 0  9997
2 52771  97.4728 202.5084 0008196  70.1212 290.0885 14.81281525215949
STEP CUBE LAB-II        
1 52897U 22065D   26138.18530493  .00000343  00000+0  75861-4 0  9999
2 52897  98.2185 282.1867 0009808 115.3627 244.8591 14.63249310207117
RANDEV                  
1 52898U 22065E   26138.19429086  .00000446  00000+0  95016-4 0  9994
2 52898  98.2169 282.5342 0009109 115.2786 244.9361 14.63634971206869
SNUGLITE-II             
1 52899U 22065F   26138.16999861  .00000561  00000+0  11561-3 0  9995
2 52899  98.2162 283.0616 0008717 115.0797 245.1311 14.64285047206604
MIMAN                   
1 52900U 22065G   26138.13640771  .00000325  00000+0  74651-4 0  9996
2 52900  98.2220 280.7776 0008820 116.6375 243.5731 14.61806708206054
STARLINK-4362           
1 53043U 22077A   26138.09353671  .00000068  00000+0  87674-5 0  9997
2 53043  97.4772 318.2148 0001383  99.0443 261.0941 15.05645684211353
LARES-2                 
1 53105U 22080A   26127.16150228 -.00000008  00000+0  00000+0 0  9996
2 53105  70.1704 319.3995 0005357 343.8104  16.2342  6.38965197 89040
GREENCUBE (IO-117)      
1 53109U 22080E   26137.52392553 -.00000003  00000+0  00000+0 0  9995
2 53109  70.1432 308.9131 0008812 296.7194  63.2564  6.42583321 90097
STARLINK-4410           
1 53204U 22084R   26138.16668980  .00045085  00000+0  21246-2 0  9992
2 53204  97.6000 198.7979 0001713  59.1922 319.8982 15.19352913  5721
COSMOS 2558             
1 53323U 22089A   26138.23014330  .00050902  00000+0  43452-3 0  9999
2 53323  97.2260 241.2127 0002624 166.0162 194.1173 15.69367052213128
