OBJECT_NAME,OBJECT_ID,EPOCH,MEAN_MOTION,ECCENTRICITY,INCLINATION,RA_OF_ASC_NODE,ARG_OF_PERICENTER,MEAN_ANOMALY,EPHEMERIS_TYPE,CLASSIFICATION_TYPE,NORAD_CAT_ID,ELEMENT_SET_NO,REV_AT_EPOCH,BSTAR,MEAN_MOTION_DOT,MEAN_MOTION_DDOT
LUDI TANCE 1-01B (L-SAR 01B),2022-018A,2026-05-18T03:56:35.807712,14.88418655,.0001615,97.8090,146.0072,92.3131,267.8271,0,U,51822,999,22924,.45844E-4,.371E-5,0
JILIN-1 GAOFEN 03D15,2022-019R,2026-05-18T05:25:19.189056,15.94549584,.0006469,97.3636,234.2066,226.7090,133.3646,0,U,51839,999,23534,.78902E-3,.296562E-2,.3618E-4
JILIN-1 GAOFEN 03D12,2022-019T,2026-05-18T04:44:37.650336,15.95893525,.0006865,97.3650,234.1258,224.3027,135.7701,0,U,51841,999,23534,.81145E-3,.327831E-2,.44709E-4
2022-023F,2022-023F,2026-05-18T04:05:21.319296,15.17997922,.0128312,63.4479,15.5275,343.8119,15.8909,0,U,51951,999,23315,.54388E-3,.13575E-3,0
MERIDIAN 10,2022-030A,2026-05-17T01:34:50.480256,2.00616156,.67755074,62.6760,144.1393,272.8788,17.7083,0,U,52145,999,3040,0,.243E-5,0
OMNI-L1,2022-033A,2026-05-18T03:32:17.797344,14.82624053,.0005827,97.8396,217.9106,37.3102,322.8515,0,U,52157,999,22300,.13532E-3,.1038E-4,0
ENMAP,2022-033C,2026-05-18T04:20:13.414848,14.74958685,.0001495,97.9796,220.8558,86.6887,273.4492,0,U,52159,999,22223,.12912E-4,.37E-6,0
ARCSAT-1,2022-033E,2026-05-18T05:34:36.399936,15.52821605,.0003481,97.2747,230.0796,317.8879,42.2107,0,U,52161,999,23105,.13715E-3,.8399E-4,0
GLOBAL-18,2022-034B,2026-05-18T02:55:47.252352,15.44938963,.0005236,52.9830,40.1785,143.0482,217.0884,0,U,52196,999,23231,.34343E-3,.16031E-3,0
GAOFEN-3 03,2022-035A,2026-05-18T04:32:11.954400,14.42218979,.0001,98.4064,147.2038,79.5639,280.5663,0,U,52200,999,21652,-.29936E-4,-.142E-5,0
DAQI-1,2022-039A,2026-05-18T03:33:23.656608,14.57657440,.0003896,98.1480,77.6238,10.6154,349.5126,0,U,52257,999,21756,.45932E-4,.164E-5,0
BRO-6,2022-047AE,2026-05-18T05:42:51.706080,15.48654177,.0005435,97.3401,228.7644,167.8353,192.3029,0,U,52422,999,22651,.47331E-3,.25269E-3,0
JILIN-1 GAOFEN 3D27,2022-048B,2026-05-18T05:40:03.707328,15.68960648,.0005393,97.5693,249.6253,155.7043,204.4474,0,U,52444,999,22477,.50029E-3,.57735E-3,0
JILIN-1 GAOFEN 3D28,2022-048C,2026-05-18T03:45:22.305024,15.71094543,.0004318,97.5630,249.5923,173.2024,186.9297,0,U,52445,999,22480,.52903E-3,.66743E-3,0
VIGORIDE-3,2022-057AE,2026-05-18T03:22:25.856256,15.26933774,.0007517,97.6568,277.3343,222.2039,137.8622,0,U,52760,999,22057,.14101E-3,.3653E-4,0
ION SCV-006,2022-057AF,2026-05-17T15:46:45.288768,15.44508627,.00168588,97.6067,284.8412,220.8357,139.1629,0,U,52761,999,22140,.15147468E-3,.6962E-4,0
SHERPA-AC1,2022-057AH,2026-05-18T03:58:13.768032,15.35803544,.0007542,97.6652,286.1582,188.9694,171.1416,0,U,52763,999,22109,.14027E-3,.4802E-4,0
OMNI-L2,2022-057AR,2026-05-18T03:08:31.913088,14.81281525,.0008196,97.4728,202.5084,70.1212,290.0885,0,U,52771,999,21594,.11625E-3,.859E-5,0
STEP CUBE LAB-II,2022-065D,2026-05-18T04:26:50.345952,14.63249310,.0009808,98.2185,282.1867,115.3627,244.8591,0,U,52897,999,20711,.75861E-4,.343E-5,0
RANDEV,2022-065E,2026-05-18T04:39:46.730304,14.63634971,.0009109,98.2169,282.5342,115.2786,244.9361,0,U,52898,999,20686,.95016E-4,.446E-5,0
SNUGLITE-II,2022-065F,2026-05-18T04:04:47.879904,14.64285047,.0008717,98.2162,283.0616,115.0797,245.1311,0,U,52899,999,20660,.11561E-3,.561E-5,0
MIMAN,2022-065G,2026-05-18T03:16:25.626144,14.61806708,.000882,98.2220,280.7776,116.6375,243.5731,0,U,52900,999,20605,.74651E-4,.325E-5,0
STARLINK-4362,2022-077A,2026-05-18T02:14:41.571744,15.05645684,.0001383,97.4772,318.2148,99.0443,261.0941,0,U,53043,999,21135,.87674E-5,.68E-6,0
LARES-2,2022-080A,2026-05-07T03:52:33.796992,6.38965197,.0005357,70.1704,319.3995,343.8104,16.2342,0,U,53105,999,8904,0,-.8E-7,0
GREENCUBE (IO-117),2022-080E,2026-05-17T12:34:27.165792,6.42583321,.00088126,70.1432,308.9131,296.7194,63.2564,0,U,53109,999,9009,0,-.3E-7,0
STARLINK-4410,2022-084R,2026-05-18T04:00:01.998720,15.19352913,.0001713,97.6000,198.7979,59.1922,319.8982,0,U,53204,999,572,.21246E-2,.45085E-3,0
COSMOS 2558,2022-089A,2026-05-18T05:31:24.381120,15.69367052,.0002624,97.2260,241.2127,166.0162,194.1173,0,U,53323,999,21312,.43452E-3,.50902E-3,0
